{
    "links": {
        "self": "http://www.neowsapp.com/rest/v1/neo/3560550?api_key=iIulBulltgU6a56xZRHN4H3l9WmuAYTsLGpBGhQ2"
    },
    "id": "3560550",
    "neo_reference_id": "3560550",
    "name": "(2011 FY22)",
    "designation": "2011 FY22",
    "nasa_jpl_url": "http://ssd.jpl.nasa.gov/sbdb.cgi?sstr=3560550",
    "absolute_magnitude_h": 23.4,
    "estimated_diameter": {
        "kilometers": {
            "estimated_diameter_min": 0.0555334912,
            "estimated_diameter_max": 0.1241766613
        },
        "meters": {
            "estimated_diameter_min": 55.5334911581,
            "estimated_diameter_max": 124.1766612574
        },
        "miles": {
            "estimated_diameter_min": 0.0345069009,
            "estimated_diameter_max": 0.0771597762
        },
        "feet": {
            "estimated_diameter_min": 182.1964991311,
            "estimated_diameter_max": 407.4037573197
        }
    },
    "is_potentially_hazardous_asteroid": false,
    "close_approach_data": [
        {
            "close_approach_date": "2011-04-22",
            "close_approach_date_full": "2011-Apr-22 00:10",
            "epoch_date_close_approach": 1303431000000,
            "relative_velocity": {
                "kilometers_per_second": "4.4286459492",
                "kilometers_per_hour": "15943.1254170117",
                "miles_per_hour": "9906.4381236982"
            },
            "miss_distance": {
                "astronomical": "0.1642693573",
                "lunar": "63.9007799897",
                "kilometers": "24574345.958348951",
                "miles": "15269790.5089234838"
            },
            "orbiting_body": "Earth"
        }
    ],
    "orbital_data": {
        "orbit_id": "14",
        "orbit_determination_date": "2017-04-06 08:53:58",
        "first_observation_date": "2011-03-30",
        "last_observation_date": "2011-05-08",
        "data_arc_in_days": 39,
        "observations_used": 46,
        "orbit_uncertainty": "7",
        "minimum_orbit_intersection": ".16709",
        "jupiter_tisserand_invariant": "3.293",
        "epoch_osculation": "2459000.5",
        "eccentricity": ".5220751541310275",
        "semi_major_axis": "2.451229767839867",
        "inclination": "1.302334023005743",
        "ascending_node_longitude": "235.5277088024893",
        "orbital_period": "1401.762572433793",
        "perihelion_distance": "1.171503608984306",
        "perihelion_argument": "332.8605542780729",
        "aphelion_distance": "3.730955926695428",
        "perihelion_time": "2458474.864091431571",
        "mean_anomaly": "134.9935651057426",
        "mean_motion": ".256819526415914",
        "equinox": "J2000",
        "orbit_class": {
            "orbit_class_type": "AMO",
            "orbit_class_description": "Near-Earth asteroid orbits similar to that of 1221 Amor",
            "orbit_class_range": "1.017 AU < q (perihelion) < 1.3 AU"
        }
    },
    "is_sentry_object": false
}